ASTROCAST-0403          
1 55111U 23001DG  26068.82333059  .00013959  00000+0  51317-3 0  9990
2 55111  97.5604 161.3228 0004771 338.0704  22.0330 15.28004949129377
STARLINK-30123          
1 56838U 23079R   26068.28086847 -.00002086  00000+0 -66311-4 0  9994
2 56838  43.0029  36.2461 0000573 244.6069 115.4724 15.27582130153689
